[{"OBJECT_NAME":"STARLINK-11143 [DTC]","OBJECT_ID":"2024-107J","EPOCH":"2025-08-17T03:52:50.454912","MEAN_MOTION":15.69681981,"ECCENTRICITY":0.0001711,"INCLINATION":53.1571,"RA_OF_ASC_NODE":179.4304,"ARG_OF_PERICENTER":143.9326,"MEAN_ANOMALY":216.1807,"EPHEMERIS_TYPE":0,"CLASSIFICATION_TYPE":"U","NORAD_CAT_ID":59953,"ELEMENT_SET_NO":999,"REV_AT_EPOCH":7002,"BSTAR":-5.2417e-6,"MEAN_MOTION_DOT":-1.224e-5,"MEAN_MOTION_DDOT":0},{"OBJECT_NAME":"STARLINK-11133 [DTC]","OBJECT_ID":"2024-107K","EPOCH":"2025-08-17T03:45:45.649440","MEAN_MOTION":15.6970577,"ECCENTRICITY":8.11e-5,"INCLINATION":53.1586,"RA_OF_ASC_NODE":179.3996,"ARG_OF_PERICENTER":81.9525,"MEAN_ANOMALY":278.1585,"EPHEMERIS_TYPE":0,"CLASSIFICATION_TYPE":"U","NORAD_CAT_ID":59954,"ELEMENT_SET_NO":999,"REV_AT_EPOCH":7002,"BSTAR":1.8425e-5,"MEAN_MOTION_DOT":1.644e-5,"MEAN_MOTION_DDOT":0},{"OBJECT_NAME":"STARLINK-11144 [DTC]","OBJECT_ID":"2024-107L","EPOCH":"2025-08-17T03:38:41.828064","MEAN_MOTION":15.69707492,"ECCENTRICITY":0.0001102,"INCLINATION":53.1594,"RA_OF_ASC_NODE":179.3704,"ARG_OF_PERICENTER":80.6257,"MEAN_ANOMALY":279.4886,"EPHEMERIS_TYPE":0,"CLASSIFICATION_TYPE":"U","NORAD_CAT_ID":59955,"ELEMENT_SET_NO":999,"REV_AT_EPOCH":7008,"BSTAR":1.7653e-5,"MEAN_MOTION_DOT":1.55e-5,"MEAN_MOTION_DDOT":0},{"OBJECT_NAME":"STARLINK-11134 [DTC]","OBJECT_ID":"2024-107M","EPOCH":"2025-08-17T03:31:37.918560","MEAN_MOTION":15.69709629,"ECCENTRICITY":8.52e-5,"INCLINATION":53.158,"RA_OF_ASC_NODE":179.333,"ARG_OF_PERICENTER":70.1246,"MEAN_ANOMALY":289.9864,"EPHEMERIS_TYPE":0,"CLASSIFICATION_TYPE":"U","NORAD_CAT_ID":59956,"ELEMENT_SET_NO":999,"REV_AT_EPOCH":6995,"BSTAR":7.1567e-7,"MEAN_MOTION_DOT":-5.01e-6,"MEAN_MOTION_DDOT":0},{"OBJECT_NAME":"STARLINK-11142 [DTC]","OBJECT_ID":"2024-107N","EPOCH":"2025-08-17T14:06:21.594816","MEAN_MOTION":15.6970059,"ECCENTRICITY":0.00015,"INCLINATION":53.1598,"RA_OF_ASC_NODE":177.1039,"ARG_OF_PERICENTER":83.014,"MEAN_ANOMALY":277.1049,"EPHEMERIS_TYPE":0,"CLASSIFICATION_TYPE":"U","NORAD_CAT_ID":59957,"ELEMENT_SET_NO":999,"REV_AT_EPOCH":7010,"BSTAR":1.9101e-5,"MEAN_MOTION_DOT":1.725e-5,"MEAN_MOTION_DDOT":0},{"OBJECT_NAME":"STARLINK-31995","OBJECT_ID":"2024-107P","EPOCH":"2025-08-17T13:23:19.914432","MEAN_MOTION":15.30189761,"ECCENTRICITY":9.99e-5,"INCLINATION":53.1598,"RA_OF_ASC_NODE":293.6562,"ARG_OF_PERICENTER":100.7387,"MEAN_ANOMALY":259.3726,"EPHEMERIS_TYPE":0,"CLASSIFICATION_TYPE":"U","NORAD_CAT_ID":59958,"ELEMENT_SET_NO":999,"REV_AT_EPOCH":6734,"BSTAR":3.1359e-5,"MEAN_MOTION_DOT":5.7e-6,"MEAN_MOTION_DDOT":0},{"OBJECT_NAME":"STARLINK-31989","OBJECT_ID":"2024-107Q","EPOCH":"2025-08-17T13:14:13.659936","MEAN_MOTION":15.30182889,"ECCENTRICITY":9.29e-5,"INCLINATION":53.1598,"RA_OF_ASC_NODE":293.6198,"ARG_OF_PERICENTER":89.7574,"MEAN_ANOMALY":270.3534,"EPHEMERIS_TYPE":0,"CLASSIFICATION_TYPE":"U","NORAD_CAT_ID":59959,"ELEMENT_SET_NO":999,"REV_AT_EPOCH":6854,"BSTAR":1.6876e-5,"MEAN_MOTION_DOT":1.41e-6,"MEAN_MOTION_DDOT":0},{"OBJECT_NAME":"STARLINK-31856","OBJECT_ID":"2024-107R","EPOCH":"2025-08-17T03:54:27.304992","MEAN_MOTION":15.30186013,"ECCENTRICITY":8.66e-5,"INCLINATION":53.1584,"RA_OF_ASC_NODE":295.4598,"ARG_OF_PERICENTER":85.2951,"MEAN_ANOMALY":274.8148,"EPHEMERIS_TYPE":0,"CLASSIFICATION_TYPE":"U","NORAD_CAT_ID":59960,"ELEMENT_SET_NO":999,"REV_AT_EPOCH":6848,"BSTAR":3.8001e-5,"MEAN_MOTION_DOT":7.66e-6,"MEAN_MOTION_DDOT":0},{"OBJECT_NAME":"STARLINK-31993","OBJECT_ID":"2024-107S","EPOCH":"2025-08-17T04:08:08.002176","MEAN_MOTION":15.30187395,"ECCENTRICITY":0.0001176,"INCLINATION":53.1605,"RA_OF_ASC_NODE":295.5146,"ARG_OF_PERICENTER":78.3904,"MEAN_ANOMALY":281.7229,"EPHEMERIS_TYPE":0,"CLASSIFICATION_TYPE":"U","NORAD_CAT_ID":59961,"ELEMENT_SET_NO":999,"REV_AT_EPOCH":6842,"BSTAR":2.694e-5,"MEAN_MOTION_DOT":4.39e-6,"MEAN_MOTION_DDOT":0},{"OBJECT_NAME":"STARLINK-31980","OBJECT_ID":"2024-107T","EPOCH":"2025-08-17T13:43:05.358720","MEAN_MOTION":15.30186367,"ECCENTRICITY":0.0001234,"INCLINATION":53.1609,"RA_OF_ASC_NODE":293.7387,"ARG_OF_PERICENTER":83.5732,"MEAN_ANOMALY":276.5409,"EPHEMERIS_TYPE":0,"CLASSIFICATION_TYPE":"U","NORAD_CAT_ID":59962,"ELEMENT_SET_NO":999,"REV_AT_EPOCH":6854,"BSTAR":2.1779e-5,"MEAN_MOTION_DOT":2.86e-6,"MEAN_MOTION_DDOT":0},{"OBJECT_NAME":"STARLINK-31991","OBJECT_ID":"2024-107U","EPOCH":"2025-08-17T13:27:53.472384","MEAN_MOTION":15.30199109,"ECCENTRICITY":0.0001425,"INCLINATION":53.1592,"RA_OF_ASC_NODE":293.6736,"ARG_OF_PERICENTER":55.4575,"MEAN_ANOMALY":304.656,"EPHEMERIS_TYPE":0,"CLASSIFICATION_TYPE":"U","NORAD_CAT_ID":59963,"ELEMENT_SET_NO":999,"REV_AT_EPOCH":6854,"BSTAR":1.4369e-5,"MEAN_MOTION_DOT":6.6e-7,"MEAN_MOTION_DDOT":0},{"OBJECT_NAME":"STARLINK-31979","OBJECT_ID":"2024-107V","EPOCH":"2025-08-17T13:38:34.014336","MEAN_MOTION":15.3016614,"ECCENTRICITY":0.0001278,"INCLINATION":53.1612,"RA_OF_ASC_NODE":293.7179,"ARG_OF_PERICENTER":88.1159,"MEAN_ANOMALY":271.9988,"EPHEMERIS_TYPE":0,"CLASSIFICATION_TYPE":"U","NORAD_CAT_ID":59964,"ELEMENT_SET_NO":999,"REV_AT_EPOCH":6849,"BSTAR":-5.158e-5,"MEAN_MOTION_DOT":-1.885e-5,"MEAN_MOTION_DDOT":0},{"OBJECT_NAME":"STARLINK-31978","OBJECT_ID":"2024-111A","EPOCH":"2025-08-17T11:32:35.292192","MEAN_MOTION":15.30185535,"ECCENTRICITY":0.0001257,"INCLINATION":53.1599,"RA_OF_ASC_NODE":304.4864,"ARG_OF_PERICENTER":81.9891,"MEAN_ANOMALY":278.1252,"EPHEMERIS_TYPE":0,"CLASSIFICATION_TYPE":"U","NORAD_CAT_ID":60016,"ELEMENT_SET_NO":999,"REV_AT_EPOCH":6766,"BSTAR":4.6176e-5,"MEAN_MOTION_DOT":1.008e-5,"MEAN_MOTION_DDOT":0},{"OBJECT_NAME":"STARLINK-31987","OBJECT_ID":"2024-111B","EPOCH":"2025-08-17T11:23:28.121856","MEAN_MOTION":15.30184167,"ECCENTRICITY":0.0001354,"INCLINATION":53.1611,"RA_OF_ASC_NODE":304.4434,"ARG_OF_PERICENTER":87.7146,"MEAN_ANOMALY":272.401,"EPHEMERIS_TYPE":0,"CLASSIFICATION_TYPE":"U","NORAD_CAT_ID":60017,"ELEMENT_SET_NO":999,"REV_AT_EPOCH":6772,"BSTAR":6.7778e-5,"MEAN_MOTION_DOT":1.648e-5,"MEAN_MOTION_DDOT":0},{"OBJECT_NAME":"STARLINK-31984","OBJECT_ID":"2024-111C","EPOCH":"2025-08-17T12:46:53.074272","MEAN_MOTION":15.30201689,"ECCENTRICITY":0.0001116,"INCLINATION":53.1609,"RA_OF_ASC_NODE":304.094,"ARG_OF_PERICENTER":78.8148,"MEAN_ANOMALY":281.2978,"EPHEMERIS_TYPE":0,"CLASSIFICATION_TYPE":"U","NORAD_CAT_ID":60018,"ELEMENT_SET_NO":999,"REV_AT_EPOCH":6762,"BSTAR":0.00027533,"MEAN_MOTION_DOT":7.804e-5,"MEAN_MOTION_DDOT":0},{"OBJECT_NAME":"STARLINK-31986","OBJECT_ID":"2024-111D","EPOCH":"2025-08-17T12:33:12.617280","MEAN_MOTION":15.3018589,"ECCENTRICITY":0.0001173,"INCLINATION":53.1605,"RA_OF_ASC_NODE":304.0328,"ARG_OF_PERICENTER":91.1821,"MEAN_ANOMALY":268.9315,"EPHEMERIS_TYPE":0,"CLASSIFICATION_TYPE":"U","NORAD_CAT_ID":60019,"ELEMENT_SET_NO":999,"REV_AT_EPOCH":6778,"BSTAR":5.4624e-5,"MEAN_MOTION_DOT":1.258e-5,"MEAN_MOTION_DDOT":0},{"OBJECT_NAME":"STARLINK-31883","OBJECT_ID":"2024-111E","EPOCH":"2025-08-17T14:36:08.206848","MEAN_MOTION":15.30183572,"ECCENTRICITY":0.000139,"INCLINATION":53.1608,"RA_OF_ASC_NODE":303.8585,"ARG_OF_PERICENTER":76.121,"MEAN_ANOMALY":283.9945,"EPHEMERIS_TYPE":0,"CLASSIFICATION_TYPE":"U","NORAD_CAT_ID":60020,"ELEMENT_SET_NO":999,"REV_AT_EPOCH":6773,"BSTAR":4.6495e-5,"MEAN_MOTION_DOT":1.017e-5,"MEAN_MOTION_DDOT":0},{"OBJECT_NAME":"STARLINK-31967","OBJECT_ID":"2024-111F","EPOCH":"2025-08-17T11:46:06.090528","MEAN_MOTION":15.30191746,"ECCENTRICITY":0.0001203,"INCLINATION":53.16,"RA_OF_ASC_NODE":303.8281,"ARG_OF_PERICENTER":86.2156,"MEAN_ANOMALY":273.8983,"EPHEMERIS_TYPE":0,"CLASSIFICATION_TYPE":"U","NORAD_CAT_ID":60021,"ELEMENT_SET_NO":999,"REV_AT_EPOCH":6778,"BSTAR":2.2629e-5,"MEAN_MOTION_DOT":3.11e-6,"MEAN_MOTION_DDOT":0},{"OBJECT_NAME":"STARLINK-31982","OBJECT_ID":"2024-111G","EPOCH":"2025-08-17T05:20:46.156416","MEAN_MOTION":15.30186093,"ECCENTRICITY":0.0001268,"INCLINATION":53.1603,"RA_OF_ASC_NODE":305.0077,"ARG_OF_PERICENTER":82.1438,"MEAN_ANOMALY":277.9706,"EPHEMERIS_TYPE":0,"CLASSIFICATION_TYPE":"U","NORAD_CAT_ID":60022,"ELEMENT_SET_NO":999,"REV_AT_EPOCH":6774,"BSTAR":6.9185e-5,"MEAN_MOTION_DOT":1.69e-5,"MEAN_MOTION_DDOT":0},{"OBJECT_NAME":"STARLINK-31992","OBJECT_ID":"2024-111H","EPOCH":"2025-08-17T11:50:40.083072","MEAN_MOTION":15.30189056,"ECCENTRICITY":0.0001138,"INCLINATION":53.1596,"RA_OF_ASC_NODE":303.8481,"ARG_OF_PERICENTER":78.647,"MEAN_ANOMALY":281.4659,"EPHEMERIS_TYPE":0,"CLASSIFICATION_TYPE":"U","NORAD_CAT_ID":60023,"ELEMENT_SET_NO":999,"REV_AT_EPOCH":6778,"BSTAR":5.6759e-5,"MEAN_MOTION_DOT":1.322e-5,"MEAN_MOTION_DDOT":0},{"OBJECT_NAME":"STARLINK-31990","OBJECT_ID":"2024-111J","EPOCH":"2025-08-17T06:03:19.158048","MEAN_MOTION":15.30189552,"ECCENTRICITY":8.98e-5,"INCLINATION":53.1598,"RA_OF_ASC_NODE":305.188,"ARG_OF_PERICENTER":90.4294,"MEAN_ANOMALY":269.6809,"EPHEMERIS_TYPE":0,"CLASSIFICATION_TYPE":"U","NORAD_CAT_ID":60024,"ELEMENT_SET_NO":999,"REV_AT_EPOCH":6773,"BSTAR":4.5662e-5,"MEAN_MOTION_DOT":9.93e-6,"MEAN_MOTION_DDOT":0},{"OBJECT_NAME":"STARLINK-31864","OBJECT_ID":"2024-111K","EPOCH":"2025-08-17T12:35:28.052736","MEAN_MOTION":15.31526009,"ECCENTRICITY":0.0002063,"INCLINATION":53.1621,"RA_OF_ASC_NODE":303.9799,"ARG_OF_PERICENTER":36.398,"MEAN_ANOMALY":323.7162,"EPHEMERIS_TYPE":0,"CLASSIFICATION_TYPE":"U","NORAD_CAT_ID":60025,"ELEMENT_SET_NO":999,"REV_AT_EPOCH":6777,"BSTAR":0.00078407,"MEAN_MOTION_DOT":0.00023912,"MEAN_MOTION_DDOT":0},{"OBJECT_NAME":"STARLINK-31939","OBJECT_ID":"2024-111L","EPOCH":"2025-08-17T11:59:46.371264","MEAN_MOTION":15.3019278,"ECCENTRICITY":0.0001013,"INCLINATION":53.1585,"RA_OF_ASC_NODE":303.8883,"ARG_OF_PERICENTER":73.4637,"MEAN_ANOMALY":286.6475,"EPHEMERIS_TYPE":0,"CLASSIFICATION_TYPE":"U","NORAD_CAT_ID":60026,"ELEMENT_SET_NO":999,"REV_AT_EPOCH":6777,"BSTAR":4.9861e-5,"MEAN_MOTION_DOT":1.118e-5,"MEAN_MOTION_DDOT":0}]
